[{"OBJECT_NAME":"STARLINK-35979","OBJECT_ID":"2025-278U","EPOCH":"2026-03-09T19:29:23.275680","MEAN_MOTION":15.27593202,"ECCENTRICITY":8.763e-5,"INCLINATION":42.9998,"RA_OF_ASC_NODE":114.0328,"ARG_OF_PERICENTER":288.7277,"MEAN_ANOMALY":71.348,"EPHEMERIS_TYPE":0,"CLASSIFICATION_TYPE":"U","NORAD_CAT_ID":66809,"ELEMENT_SET_NO":999,"REV_AT_EPOCH":1522,"BSTAR":0.0011270022,"MEAN_MOTION_DOT":0.00030893,"MEAN_MOTION_DDOT":0},{"OBJECT_NAME":"COSMOS 2251 DEB","OBJECT_ID":"1993-036AWN","EPOCH":"2026-03-09T06:26:08.321568","MEAN_MOTION":15.11257706,"ECCENTRICITY":0.00842289,"INCLINATION":74.0116,"RA_OF_ASC_NODE":284.5024,"ARG_OF_PERICENTER":350.308,"MEAN_ANOMALY":9.6482,"EPHEMERIS_TYPE":0,"CLASSIFICATION_TYPE":"U","NORAD_CAT_ID":35996,"ELEMENT_SET_NO":999,"REV_AT_EPOCH":73632,"BSTAR":0.00055219842,"MEAN_MOTION_DOT":0.00010085,"MEAN_MOTION_DDOT":0}]
